NORAD_CAT_ID,OBJECT_NAME,OBJECT_TYPE,EPOCH,MEAN_MOTION,ECCENTRICITY,INCLINATION,RA_OF_ASC_NODE,ARG_OF_PERICENTER,MEAN_ANOMALY,BSTAR,MEAN_MOTION_DOT,MEAN_MOTION_DDOT,TLE_LINE0,TLE_LINE1,TLE_LINE2,SEMIMAJOR_AXIS,PERIOD,APOGEE,PERIGEE,DECAYED
53547.0,STARLINK-4474,PAYLOAD,2022-08-24 14:00:01,15.89838745,0.0039163,53.2174,131.3996,56.1244,41.2713,-0.003958,-0.01288341,0.0004748999999999,0 STARLINK-4474,1 53547U 22101W   22236.58334491 -.01288341  47490-3 -39580-2 0  9995,2 53547  53.2174 131.3996 0039163  56.1244  41.2713 15.89838745   774,6680.871999999999,90.575,328.901,276.572,0.0
53547.0,STARLINK-4474,PAYLOAD,2022-08-25 04:00:00,15.88346496,0.0032725,53.2173,128.4472,57.5364,138.8993,-0.0045499,-0.01342544,0.00050485,0 STARLINK-4474,1 53547U 22101W   22237.16667824 -.01342544  50485-3 -45499-2 0  9999,2 53547  53.2173 128.4472 0032725  57.5364 138.8993 15.88346496   863,6685.055,90.66,328.797,285.0440000000001,0.0
53547.0,STARLINK-4474,PAYLOAD,2022-08-25 12:00:00,15.87488939,0.0029582,53.2175,126.7592,58.2977,244.7315,-0.0048765,-0.01365917,0.00051689,0 STARLINK-4474,1 53547U 22101W   22237.50001157 -.01365917  51689-3 -48765-2 0  9993,2 53547  53.2175 126.7592 0029582  58.2977 244.7315 15.87488939   913,6687.4630000000025,90.709,329.11,289.545,0.0
53547.0,STARLINK-4474,PAYLOAD,2022-08-25 14:00:01,15.87239251,0.0028788,53.2174,126.3375,57.8454,1.6815,-0.0047013,-0.01298625,0.00047034,0 STARLINK-4474,1 53547U 22101W   22237.58334491 -.01298625  47034-3 -47013-2 0  9996,2 53547  53.2174 126.3375 0028788  57.8454   1.6815 15.87239251  1309,6688.1640000000025,90.724,329.283,290.775,0.0
53547.0,STARLINK-4474,PAYLOAD,2022-08-25 18:00:00,15.86840027,0.0027025,53.2175,125.4965,57.9773,234.3127,-0.005082,-0.01369542,0.00051633,0 STARLINK-4474,1 53547U 22101W   22237.75001157 -.01369542  51633-3 -50820-2 0  9992,2 53547  53.2175 125.4965 0027025  57.9773 234.3127 15.86840027   952,6689.286,90.746,329.228,293.073,0.0
53547.0,STARLINK-4474,PAYLOAD,2022-08-25 22:00:00,15.86385503,0.0025508,53.2176,124.6561,57.0417,107.7704,-0.0050509,-0.01326864,0.00048536,0 STARLINK-4474,1 53547U 22101W   22237.91667824 -.01326864  48536-3 -50509-2 0  9991,2 53547  53.2176 124.6561 0025508  57.0417 107.7704 15.86385503  1303,6690.563,90.772,329.495,295.362,0.0
53547.0,STARLINK-4474,PAYLOAD,2022-08-26 12:00:00,15.84889923,0.0019854,53.2174,121.7148,57.9908,198.5638,-0.0056935,-0.01212095,0.0,0 STARLINK-4474,1 53547U 22101W   22238.50001157 -.01212095  00000-0 -56935-2 0  9998,2 53547  53.2174 121.7148 0019854  57.9908 198.5638 15.84889923  1072,6694.772,90.858,329.9290000000001,303.345,0.0
53547.0,STARLINK-4474,PAYLOAD,2022-08-26 14:00:01,15.84648327,0.0018939,53.2172,121.2946,57.2141,315.1197,-0.0055626,-0.01173325,0.0,0 STARLINK-4474,1 53547U 22101W   22238.58335648 -.01173325  00000-0 -55626-2 0  9999,2 53547  53.2172 121.2946 0018939  57.2141 315.1197 15.84648327  1300,6695.4519999999975,90.872,329.9980000000001,304.637,0.0
53547.0,STARLINK-4474,PAYLOAD,2022-08-26 22:00:00,15.83771617,0.0015961999999999,53.2172,119.62,56.5805,57.8508,-0.0057328999999999,-0.01154753,0.0,0 STARLINK-4474,1 53547U 22101W   22238.91667824 -.01154753  00000-0 -57329-2 0  9996,2 53547  53.2172 119.6200 0015962  56.5805  57.8508 15.83771617  1300,6697.9230000000025,90.922,330.4790000000001,309.097,0.0
53547.0,STARLINK-4474,PAYLOAD,2022-08-27 14:00:01,15.82062669,0.0009455,53.2175,116.2712,53.8001,261.8189,-0.0065354,-0.01218747,0.0,0 STARLINK-4474,1 53547U 22101W   22239.58334491 -.01218747  00000-0 -65354-2 0  9992,2 53547  53.2175 116.2712 0009455  53.8001 261.8189 15.82062669  1303,6702.745,91.02,330.9480000000001,318.273,0.0
53547.0,STARLINK-4474,PAYLOAD,2022-08-27 20:00:01,15.81416195,0.0007304999999999,53.2176,115.02,48.3534,251.6354,-0.0067851,-0.01223944,0.0,0 STARLINK-4474,1 53547U 22101W   22239.83334491 -.01223944  00000-0 -67851-2 0  9999,2 53547  53.2176 115.0200 0007305  48.3534 251.6354 15.81416195  1289,6704.571999999999,91.058,331.335,321.539,0.0
53547.0,STARLINK-4474,PAYLOAD,2022-08-27 22:00:00,15.81172044,0.000662,53.2176,114.6031,44.1525,10.5058,-0.0065753999999999,-0.01177428,0.0,0 STARLINK-4474,1 53547U 22101W   22239.91667824 -.01177428  00000-0 -65754-2 0  9992,2 53547  53.2176 114.6031 0006620  44.1525  10.5058 15.81172044  1307,6705.262,91.072,331.566,322.688,0.0
53547.0,STARLINK-4474,PAYLOAD,2022-08-28 14:00:01,15.79452695,0.0003054,53.2172,111.267,15.7069,233.8838,-0.0073132,-0.0120279,0.0,0 STARLINK-4474,1 53547U 22101W   22240.58334491 -.01202790  00000-0 -73132-2 0  9998,2 53547  53.2172 111.2670 0003054  15.7069 233.8838 15.79452695  1306,6710.127,91.171,334.042,329.9430000000001,0.0
53547.0,STARLINK-4474,PAYLOAD,2022-08-28 20:00:01,15.7879483,0.0002931999999999,53.2174,110.0207,10.4411,221.1773,-0.007462,-0.01192063,0.0,0 STARLINK-4474,1 53547U 22101W   22240.83334491 -.01192063  00000-0 -74620-2 0  9990,2 53547  53.2174 110.0207 0002932  10.4411 221.1773 15.78794830  1440,6711.991,91.209,335.824,331.8880000000001,0.0
53547.0,STARLINK-4474,PAYLOAD,2022-08-28 22:00:00,15.78582427,0.0003005,53.2173,109.6053,7.2578,338.2365,-0.007581,-0.01198624,0.0,0 STARLINK-4474,1 53547U 22101W   22240.91667824 -.01198624  00000-0 -75810-2 0  9999,2 53547  53.2173 109.6053 0003005   7.2578 338.2365 15.78582427  1301,6712.593000000003,91.221,336.475,332.441,0.0
53547.0,STARLINK-4474,PAYLOAD,2022-08-29 12:00:00,15.77067006,0.0003224,53.2175,106.6973,345.4577,75.3583,-0.0081527,-0.01203175,0.0,0 STARLINK-4474,1 53547U 22101W   22241.50001157 -.01203175  00000-0 -81527-2 0  9996,2 53547  53.2175 106.6973 0003224 345.4577  75.3583 15.77067006  1558,6716.893,91.309,340.923,336.592,0.0
53547.0,STARLINK-4474,PAYLOAD,2022-08-29 14:00:01,15.76846647,0.0003286,53.2175,106.2821,357.6917,176.4825,-0.0081926,-0.01197882,0.0,0 STARLINK-4474,1 53547U 22101W   22241.58334491 -.01197882  00000-0 -81926-2 0  9994,2 53547  53.2175 106.2821 0003286 357.6917 176.4825 15.76846647  1307,6717.518,91.321,341.591,337.176,0.0
53547.0,STARLINK-4474,PAYLOAD,2022-08-29 22:00:00,15.75965619,0.0003433,53.2175,104.6269,326.996,299.9565,-0.0083498,-0.01176543,0.0,0 STARLINK-4474,1 53547U 22101W   22241.91667824 -.01176543  00000-0 -83498-2 0  9997,2 53547  53.2175 104.6269 0003433 326.9960 299.9565 15.75965619  1308,6720.022,91.373,344.194,339.58,0.0
53547.0,STARLINK-4474,PAYLOAD,2022-08-30 06:00:00,15.75105615,8.75e-05,53.2172,102.971,4.1894,354.49300000000005,-0.0087732,-0.01187133,0.0,0 STARLINK-4474,1 53547U 22101W   22242.25001157 -.01187133  00000-0 -87732-2 0  9998,2 53547  53.2172 102.9710 0000875   4.1894 354.4930 15.75105615  1669,6722.468000000003,91.422,344.921,343.744,0.0
53547.0,STARLINK-4474,PAYLOAD,2022-08-30 14:00:01,15.74218698,0.0001181,53.2168,101.3172,55.4777,33.8629,-0.0077775,-0.01029352,0.0,0 STARLINK-4474,1 53547U 22101W   22242.58334491 -.01029352  00000-0 -77775-2 0  9998,2 53547  53.2168 101.3172 0001181  55.4777  33.8629 15.74218698  1308,6724.9919999999975,91.474,347.652,346.06300000000016,0.0
53547.0,STARLINK-4474,PAYLOAD,2022-08-30 20:00:01,15.73491216,0.0001274,53.2174,100.0798,55.6926,11.0206,-0.002953,-0.00400896,0.0,0 STARLINK-4474,1 53547U 22101W   22242.83334491 -.00400896  00000-0 -29530-2 0  9997,2 53547  53.2174 100.0798 0001274  55.6926  11.0206 15.73491216  1763,6727.065,91.516,349.787,348.0730000000001,0.0
53547.0,STARLINK-4474,PAYLOAD,2022-08-30 22:00:00,15.73171412,0.0001296999999999,53.2168,99.6695,69.3555,109.6656,0.0014727,0.00211081,0.0,0 STARLINK-4474,1 53547U 22101W   22242.91667824  .00211081  00000-0  14727-2 0  9991,2 53547  53.2168  99.6695 0001297  69.3555 109.6656 15.73171412  1306,6727.977,91.535,350.714,348.969,0.0
53547.0,STARLINK-4474,PAYLOAD,2022-08-31 14:00:01,15.73217229,0.0001335,53.2163,96.3718,72.6606,284.1618,0.00038285,0.00053493,0.0,0 STARLINK-4474,1 53547U 22101W   22243.58334491  .00053493  00000-0  38285-3 0  9993,2 53547  53.2163  96.3718 0001335  72.6606 284.1618 15.73217229  1302,6727.846,91.532,350.6090000000001,348.81300000000016,0.0
53547.0,STARLINK-4474,PAYLOAD,2022-08-31 20:00:01,15.73249541,0.000139,53.216,95.1363,64.4335,269.1137,4.5757e-05,5.819e-05,0.0,0 STARLINK-4474,1 53547U 22101W   22243.83334491  .00005819  00000-0  45757-4 0  9993,2 53547  53.2160  95.1363 0001390  64.4335 269.1137 15.73249541  1919,6727.754,91.53,350.55400000000014,348.684,0.0
53547.0,STARLINK-4474,PAYLOAD,2022-08-31 22:00:00,15.73242356,0.0001404,53.216,94.7244,62.5483,23.2472,0.00021853,0.00030215,0.0,0 STARLINK-4474,1 53547U 22101W   22243.91667824  .00030215  00000-0  21853-3 0  9999,2 53547  53.2160  94.7244 0001404  62.5483  23.2472 15.73242356  1302,6727.774,91.531,350.584,348.695,0.0
53547.0,STARLINK-4474,PAYLOAD,2022-09-01 14:00:01,15.73252353,0.0001163,53.2161,91.4228,73.2242,190.6374,-0.00058816,-0.00082541,0.0,0 STARLINK-4474,1 53547U 22101W   22244.58335648 -.00082541  00000-0 -58816-3 0  9999,2 53547  53.2161  91.4228 0001163  73.2242 190.6374 15.73252353  1301,6727.746,91.53,350.39300000000014,348.82800000000015,0.0
53547.0,STARLINK-4474,PAYLOAD,2022-09-01 20:00:01,15.73178232,0.0001388,53.2161,90.1875,64.9557,175.6374,8.8517e-05,0.00011809,0.0,0 STARLINK-4474,1 53547U 22101W   22244.83335648  .00011809  00000-0  88517-4 0  9996,2 53547  53.2161  90.1875 0001388  64.9557 175.6374 15.73178232  2071,6727.956999999999,91.534,350.756,348.88800000000015,0.0
53547.0,STARLINK-4474,PAYLOAD,2022-09-01 22:00:00,15.73171212,0.0001413,53.2163,89.7755,63.4562,289.2990000000001,0.00027263,0.00037767,0.0,0 STARLINK-4474,1 53547U 22101W   22244.91667824  .00037767  00000-0  27263-3 0  9990,2 53547  53.2163  89.7755 0001413  63.4562 289.2990 15.73171212  1305,6727.977,91.535,350.793,348.892,0.0
53547.0,STARLINK-4474,PAYLOAD,2022-09-02 14:00:01,15.73258691,0.0001226,53.2166,86.4745,69.6768,100.9562,0.00089752,0.00127591,0.0,0 STARLINK-4474,1 53547U 22101W   22245.58334491  .00127591  00000-0  89752-3 0  9991,2 53547  53.2166  86.4745 0001226  69.6768 100.9562 15.73258691  1300,6727.728,91.53,350.418,348.76800000000014,0.0
